{
  "type": "FeatureCollection",
  "name": "chlorophyll_kochi_2026-09-11",
  "properties": {
    "date": "2026-09-11",
    "parameter": "Chlorophyll-a Concentration (mg/m³)",
    "source": "Ocean Colour Monitor (OCM-3)"
  },
  "features": [
    {
      "type": "Feature",
      "properties": { "chlorophyll_mg_m3": 1.75, "rating": "High Bloom / Plume" },
      "geometry": {
        "type": "Polygon",
        "coordinates": [
          [
            [75.95, 9.70],
            [76.14, 9.72],
            [76.16, 9.95],
            [75.92, 9.90],
            [75.95, 9.70]
          ]
        ]
      }
    }
  ]
}
