{
  "type": "FeatureCollection",
  "name": "kerala_coastline",
  "crs": { "type": "name", "properties": { "name": "urn:ogc:def:crs:OGC:1.3:CRS84" } },
  "features": [
    {
      "type": "Feature",
      "properties": {
        "name": "Kerala Coastline",
        "description": "Southwest Indian Coastal Margin (INCOIS Sector)",
        "ports": ["Vizhinjam", "Kollam", "Alappuzha", "Kochi", "Munambam", "Ponnani", "Beypore", "Kannur"]
      },
      "geometry": {
        "type": "LineString",
        "coordinates": [
          [77.08, 8.28],
          [76.98, 8.37],
          [76.85, 8.65],
          [76.55, 8.90],
          [76.45, 9.15],
          [76.32, 9.49],
          [76.28, 9.80],
          [76.25, 9.97],
          [76.18, 10.18],
          [76.08, 10.45],
          [75.92, 10.78],
          [75.78, 11.25],
          [75.60, 11.52],
          [75.36, 11.87],
          [75.12, 12.18],
          [74.96, 12.52],
          [74.88, 12.75]
        ]
      }
    },
    {
      "type": "Feature",
      "properties": {
        "name": "Kochi Harbor",
        "type": "port",
        "symbol": "anchor"
      },
      "geometry": {
        "type": "Point",
        "coordinates": [76.2673, 9.9312]
      }
    }
  ]
}
